{"type":"FeatureCollection","_note":"Concession polygons: Kementerian Kehutanan PBPH_AR_50K_DESEMBER_2023 (spatial.phl.kehutanan.go.id, public item, no stated licence), simplified 0.0005\u00b0. National parks: WDPA via Earth Engine (UNEP-WCMC terms). Official accounting areas for the Verra projects may differ from the licence boundary.","features":[{"type":"Feature","id":"katingan-mentaya","properties":{"name":"Katingan Mentaya Project","operator":"PT Rimba Makmur Utama","type":"Ecosystem Restoration Concession (REDD+)","approx_area_ha":157404,"approximate":false,"source":"Kemenhut PBPH_AR_50K Dec 2023","licence_status":"Aktif","sk":"SK.1099/Menlhk/Setjen/HPL.0/11/2021","sk_date":"2021-11-17"},"geometry":{"type":"Polygon","coordinates":[[[113.12604,-2.9171],[113.10499,-2.91723],[113.02061,-2.76536],[113.05952,-2.55996],[113.12784,-2.42405],[113.15044,-2.42405],[113.14003,-2.39649],[113.14212,-2.39644],[113.10435,-2.29215],[113.17402,-2.25252],[113.18192,-2.24355],[113.19919,-2.22861],[113.2222,-2.20527],[113.23696,-2.18812],[113.24064,-2.18192],[113.24293,-2.1755],[113.24415,-2.17054],[113.24451,-2.15982],[113.2428,-2.14972],[113.23473,-2.13319],[113.2295,-2.11873],[113.22885,-2.11193],[113.22932,-2.10446],[113.23181,-2.0925],[113.23548,-2.08542],[113.24078,-2.07811],[113.25082,-2.06787],[113.26635,-2.05933],[113.27212,-2.05503],[113.28973,-2.05436],[113.30248,-2.05828],[113.31425,-2.0701],[113.31593,-2.10263],[113.30715,-2.13585],[113.30318,-2.15568],[113.28669,-2.19074],[113.28565,-2.19972],[113.29066,-2.21516],[113.28752,-2.25233],[113.28628,-2.3036],[113.28702,-2.30585],[113.28947,-2.30698],[113.28913,-2.30933],[113.28981,-2.3108],[113.29289,-2.3136],[113.29246,-2.31424],[113.29029,-2.31298],[113.28736,-2.31287],[113.28515,-2.31515],[113.28422,-2.31744],[113.28493,-2.32004],[113.2839,-2.32191],[113.28323,-2.3269],[113.28428,-2.32785],[113.28353,-2.32992],[113.28384,-2.33278],[113.28027,-2.33605],[113.28135,-2.33799],[113.28068,-2.33965],[113.28298,-2.34139],[113.28339,-2.34723],[113.28614,-2.3488],[113.29097,-2.34957],[113.29532,-2.35172],[113.29702,-2.35341],[113.29734,-2.35441],[113.29639,-2.35475],[113.29643,-2.35554],[113.29869,-2.35941],[113.29831,-2.3636],[113.29965,-2.36832],[113.30068,-2.36891],[113.30078,-2.36992],[113.30129,-2.36932],[113.30309,-2.37042],[113.3019,-2.37099],[113.30503,-2.3772],[113.28514,-2.401],[113.26558,-2.42078],[113.23452,-2.45978],[113.2302,-2.4668],[113.22989,-2.49828],[113.23092,-2.53528],[113.22823,-2.57231],[113.22538,-2.58906],[113.2224,-2.62256],[113.26134,-2.67711],[113.25772,-2.69901],[113.25487,-2.72339],[113.23707,-2.76177],[113.21316,-2.8202],[113.19315,-2.88339],[113.18299,-3.02853],[113.17335,-3.02815],[113.16706,-3.0225],[113.16715,-3.01331],[113.16356,-2.99932],[113.1585,-2.98794],[113.1401,-2.95386],[113.1315,-2.93294],[113.12604,-2.9171]]]}},{"type":"Feature","id":"rimba-raya","properties":{"name":"Rimba Raya Biodiversity Reserve","operator":"PT Rimba Raya Conservation","type":"Ecosystem Restoration Concession (REDD+)","approx_area_ha":37161,"approximate":false,"source":"Kemenhut PBPH_AR_50K Dec 2023","licence_status":"Dicabut","sk":"SK.1100/MENLHK/SETJEN/HPL.0/11/2021","sk_date":"2021-11-17"},"geometry":{"type":"MultiPolygon","coordinates":[[[[112.41158,-3.28056],[112.43378,-3.29916],[112.44548,-3.30166],[112.45968,-3.30606],[112.46838,-3.31126],[112.48148,-3.31086],[112.48428,-3.31336],[112.50656,-3.3433],[112.50994,-3.35142],[112.50085,-3.36375],[112.49709,-3.37397],[112.49211,-3.37885],[112.4917,-3.3783],[112.49038,-3.37961],[112.4663,-3.38282],[112.46671,-3.38236],[112.46342,-3.38001],[112.45389,-3.36928],[112.44229,-3.35258],[112.43459,-3.34468],[112.43189,-3.34078],[112.42919,-3.33298],[112.42719,-3.33088],[112.41629,-3.32438],[112.40516,-3.31978],[112.37035,-3.32258],[112.32416,-3.29873],[112.27649,-3.29755],[112.24423,-3.30457],[112.24353,-3.28996],[112.22629,-3.29118],[112.2,-3.30096],[112.23728,-3.22123],[112.30704,-3.22101],[112.31508,-3.22716],[112.32888,-3.23416],[112.34948,-3.24806],[112.38248,-3.26456],[112.39318,-3.26866],[112.41158,-3.28056]]],[[[112.4593,-3.25984],[112.46774,-3.27571],[112.45308,-3.26996],[112.42778,-3.26966],[112.36598,-3.22686],[112.35238,-3.20326],[112.3537,-3.20356],[112.36596,-3.22485],[112.42796,-3.26204],[112.4593,-3.25984]]],[[[112.28308,-3.17517],[112.27716,-3.1756],[112.26776,-3.1484],[112.26816,-3.0887],[112.26376,-3.0581],[112.25896,-3.0431],[112.23196,-2.974],[112.22886,-2.9553],[112.23276,-2.9544],[112.22256,-2.9269],[112.21966,-2.9031],[112.21796,-2.8734],[112.21246,-2.8531],[112.20906,-2.8459],[112.20616,-2.8298],[112.19896,-2.8096],[112.19286,-2.7973],[112.18916,-2.7918],[112.18306,-2.7861],[112.16686,-2.7741],[112.15698,-2.75525],[112.18625,-2.75203],[112.20599,-2.79386],[112.25986,-2.83576],[112.24164,-2.8889],[112.24601,-2.9228],[112.24923,-2.94126],[112.25179,-2.95083],[112.27426,-2.9972],[112.29297,-3.12928],[112.30536,-3.16516],[112.30691,-3.16748],[112.28268,-3.16766],[112.28325,-3.17661],[112.28308,-3.17517]]]]}},{"type":"Feature","id":"sebangau","properties":{"name":"Sebangau National Park (reference)","operator":"KLHK / Balai Taman Nasional Sebangau","type":"National park \u2014 reference peat-swamp forest","approx_area_ha":568700,"approximate":false,"source":"WDPA"},"geometry":{"type":"Polygon","coordinates":[[[113.3073,-2.94879],[113.30682,-2.95517],[113.31089,-2.97809],[113.37817,-2.99714],[113.40877,-3.01039],[113.43783,-3.03473],[113.4597,-3.04035],[113.49058,-3.04165],[113.49727,-3.02892],[113.50015,-3.01587],[113.50601,-3.00493],[113.52247,-2.99467],[113.54401,-2.98657],[113.57543,-2.98898],[113.60675,-2.97034],[113.61086,-2.96006],[113.6164,-2.96172],[113.62035,-2.96951],[113.62661,-2.97266],[113.64666,-2.96685],[113.66091,-2.9679],[113.67331,-2.9783],[113.69184,-2.9647],[113.67828,-2.91072],[113.67243,-2.86477],[113.66946,-2.85079],[113.68623,-2.69977],[113.95805,-2.69984],[113.92874,-2.74376],[113.92343,-2.75102],[113.93353,-2.74859],[113.94266,-2.7374],[113.95732,-2.74592],[113.95719,-2.74688],[113.96459,-2.74848],[113.98239,-2.73118],[114.00114,-2.7312],[113.98558,-2.74857],[113.97634,-2.75721],[113.96847,-2.75832],[113.96265,-2.75595],[113.95785,-2.75013],[113.95292,-2.75362],[113.95102,-2.76023],[113.95027,-2.7713],[113.95515,-2.77671],[113.96193,-2.77903],[113.97037,-2.77588],[113.9752,-2.78087],[113.97601,-2.7871],[113.96894,-2.79727],[113.96348,-2.79979],[113.9544,-2.79726],[113.95186,-2.8003],[113.94884,-2.80756],[113.93081,-2.8244],[113.92214,-2.83862],[113.91322,-2.84589],[113.90031,-2.84446],[113.89369,-2.84835],[113.89525,-2.84837],[113.88376,-2.86919],[113.88226,-2.87148],[113.88215,-2.87303],[113.88179,-2.87404],[113.88143,-2.87517],[113.88089,-2.87618],[113.87241,-2.88445],[113.87881,-2.90283],[113.88277,-2.9136],[113.88069,-2.92633],[113.87756,-2.93061],[113.86057,-2.937],[113.85956,-2.94763],[113.85952,-2.96415],[113.85936,-2.96529],[113.85924,-2.96672],[113.86202,-2.97926],[113.85686,-2.98493],[113.84945,-2.98612],[113.83427,-2.9781],[113.82681,-2.98237],[113.82254,-2.97939],[113.82123,-2.98023],[113.79993,-2.99307],[113.7961,-3.00485],[113.79277,-3.01164],[113.77989,-3.0173],[113.7638,-3.02453],[113.7597,-3.02492],[113.75522,-3.02938],[113.74056,-3.03356],[113.72656,-3.03246],[113.71994,-3.02322],[113.70014,-3.03117],[113.691,-3.03526],[113.66795,-3.0561],[113.66251,-3.05851],[113.66236,-3.05959],[113.65832,-3.06948],[113.6619,-3.07822],[113.66634,-3.08368],[113.66359,-3.08849],[113.65735,-3.09069],[113.64792,-3.08741],[113.64092,-3.09678],[113.64036,-3.09807],[113.64303,-3.1096],[113.63788,-3.13229],[113.63377,-3.13791],[113.63343,-3.13904],[113.63238,-3.14288],[113.63664,-3.14967],[113.65489,-3.14798],[113.66457,-3.14199],[113.67526,-3.1255],[113.68391,-3.10384],[113.69256,-3.09117],[113.72317,-3.0615],[113.74636,-3.0503],[113.77083,-3.04264],[113.82085,-3.03227],[113.85312,-3.02045],[113.87666,-3.0066],[113.88284,-3.00254],[113.91076,-2.9699],[113.92665,-2.94508],[113.92781,-2.93105],[113.93262,-2.91828],[113.95534,-2.88012],[113.97766,-2.8495],[114.06326,-2.7733],[114.083,-2.75175],[114.09216,-2.7399],[114.10158,-2.71145],[114.10465,-2.6825],[114.10256,-2.66328],[114.09386,-2.6206],[114.09435,-2.6028],[114.09886,-2.5783],[114.10836,-2.546],[114.10856,-2.5256],[114.10216,-2.5095],[114.08625,-2.48854],[114.08016,-2.4618],[114.06546,-2.4397],[114.05586,-2.396],[114.04987,-2.37909],[114.00955,-2.33759],[113.98903,-2.31167],[113.97206,-2.2993],[113.95316,-2.293],[113.94736,-2.2924],[113.94444,-2.29036],[113.95921,-2.28304],[113.96356,-2.2784],[113.94745,-2.27914],[113.94686,-2.28178],[113.93713,-2.283],[113.93629,-2.28688],[113.93269,-2.28891],[113.93336,-2.29819],[113.95009,-2.30412],[113.96056,-2.3113],[113.96516,-2.3129],[113.97298,-2.32366],[113.97316,-2.32465],[113.96455,-2.32193],[113.9622,-2.3202],[113.95955,-2.32015],[113.95363,-2.31752],[113.95081,-2.31583],[113.94176,-2.3151],[113.93769,-2.32173],[113.92736,-2.3241],[113.89656,-2.3214],[113.88186,-2.3176],[113.86356,-2.3101],[113.85916,-2.3015],[113.84626,-2.3032],[113.83196,-2.2981],[113.82877,-2.29083],[113.82727,-2.28395],[113.81686,-2.2762],[113.81516,-2.272],[113.79816,-2.2641],[113.78396,-2.2593],[113.78096,-2.2562],[113.77653,-2.24477],[113.77196,-2.2401],[113.77056,-2.2254],[113.77266,-2.2229],[113.77016,-2.2159],[113.76249,-2.20533],[113.7611,-2.20132],[113.76259,-2.19152],[113.76166,-2.1868],[113.76445,-2.1782],[113.75726,-2.1745],[113.75966,-2.1652],[113.75916,-2.1589],[113.76826,-2.1578],[113.77416,-2.1423],[113.77575,-2.12919],[113.76886,-2.1201],[113.76576,-2.114],[113.72916,-2.1224],[113.72076,-2.0887],[113.71496,-2.0813],[113.69605,-2.06814],[113.73786,-2.0513],[113.73655,-2.04759],[113.69619,-2.05168],[113.68359,-2.01608],[113.70446,-2.01617],[113.70187,-2.01821],[113.69887,-2.01828],[113.70036,-2.04487],[113.71334,-2.04363],[113.71427,-2.0417],[113.72877,-2.04038],[113.73174,-2.03837],[113.73023,-2.02992],[113.72047,-2.02539],[113.72029,-2.02276],[113.72474,-2.02026],[113.72889,-2.01794],[113.72406,-2.0129],[113.72285,-1.99722],[113.72566,-1.9947],[113.72026,-1.9866],[113.70572,-1.98112],[113.71253,-1.97699],[113.68281,-1.96756],[113.66161,-1.95793],[113.66175,-1.95637],[113.65554,-1.951],[113.654,-1.94602],[113.57709,-1.92078],[113.60789,-1.95958],[113.61847,-1.97738],[113.6304,-2.00566],[113.61238,-2.01029],[113.59539,-1.99794],[113.56966,-1.99073],[113.52567,-1.98947],[113.49535,-1.9908],[113.49299,-1.99966],[113.49562,-2.00976],[113.49935,-2.01946],[113.49983,-2.02595],[113.50508,-2.03191],[113.51607,-2.03203],[113.51978,-2.0474],[113.51769,-2.05126],[113.52948,-2.06591],[113.53834,-2.14024],[113.53396,-2.15431],[113.54309,-2.19792],[113.54299,-2.28408],[113.48739,-2.30598],[113.44647,-2.35834],[113.43575,-2.37264],[113.43088,-2.38394],[113.41876,-2.3986],[113.40985,-2.40844],[113.3909,-2.43446],[113.39127,-2.44109],[113.37744,-2.45374],[113.37013,-2.49088],[113.3735,-2.53841],[113.37224,-2.57173],[113.38119,-2.62548],[113.38397,-2.6371],[113.38796,-2.6503],[113.38529,-2.65459],[113.36711,-2.66907],[113.36149,-2.68429],[113.33259,-2.71752],[113.31927,-2.73274],[113.31547,-2.74077],[113.31306,-2.7518],[113.3214,-2.77794],[113.32198,-2.79216],[113.32093,-2.80139],[113.30738,-2.82042],[113.31437,-2.84732],[113.3191,-2.91372],[113.3073,-2.94879]],[[114.06984,-2.52761],[114.07029,-2.52839],[114.07091,-2.52738],[114.06984,-2.52761]],[[114.06963,-2.54935],[114.07115,-2.54858],[114.07064,-2.54762],[114.06963,-2.54935]],[[114.06675,-2.50765],[114.06597,-2.50693],[114.06484,-2.50705],[114.06675,-2.50765]],[[114.06014,-2.61893],[114.06116,-2.61996],[114.06287,-2.61912],[114.06014,-2.61893]],[[114.06077,-2.59622],[114.06071,-2.59801],[114.06167,-2.59584],[114.06077,-2.59622]],[[114.05886,-2.56848],[114.06011,-2.56821],[114.05933,-2.56721],[114.05886,-2.56848]],[[114.05628,-2.57],[114.05566,-2.571],[114.05803,-2.56987],[114.05628,-2.57]],[[114.04209,-2.49004],[114.04292,-2.49129],[114.04236,-2.4887],[114.04209,-2.49004]],[[114.03495,-2.43234],[114.03609,-2.43361],[114.03478,-2.43014],[114.03495,-2.43234]],[[114.02881,-2.39016],[114.02948,-2.38897],[114.02918,-2.38767],[114.02881,-2.39016]],[[114.00593,-2.36129],[114.00491,-2.36113],[114.00398,-2.36221],[114.00593,-2.36129]],[[114.00662,-2.72605],[114.00588,-2.72722],[114.00803,-2.72614],[114.00662,-2.72605]],[[113.98543,-2.34293],[113.9866,-2.3446],[113.98627,-2.34236],[113.98543,-2.34293]],[[113.98281,-2.33975],[113.9837,-2.3393],[113.98274,-2.33814],[113.98281,-2.33975]],[[113.98076,-2.33585],[113.98207,-2.33639],[113.98097,-2.3349],[113.98076,-2.33585]],[[113.56946,-2.49875],[113.56842,-2.4975],[113.56688,-2.49809],[113.56946,-2.49875]],[[113.55428,-2.49835],[113.5554,-2.49851],[113.55474,-2.49714],[113.55428,-2.49835]],[[113.53496,-2.5085],[113.53498,-2.51141],[113.5386,-2.51294],[113.53496,-2.5085]],[[113.52902,-2.49964],[113.52853,-2.49863],[113.52814,-2.49987],[113.52902,-2.49964]],[[113.52875,-2.49559],[113.52788,-2.49498],[113.52788,-2.49601],[113.52875,-2.49559]],[[113.50584,-2.53789],[113.50662,-2.5371],[113.50542,-2.53688],[113.50584,-2.53789]],[[113.47342,-2.53021],[113.47357,-2.52879],[113.47232,-2.53087],[113.47342,-2.53021]],[[113.46729,-2.53577],[113.46577,-2.53658],[113.46518,-2.53789],[113.46729,-2.53577]],[[113.43851,-2.57185],[113.44064,-2.57185],[113.43702,-2.57019],[113.43851,-2.57185]],[[113.42812,-2.56926],[113.42916,-2.56858],[113.42709,-2.569],[113.42812,-2.56926]],[[114.06041,-2.5014],[114.0616,-2.5017],[114.06065,-2.50051],[114.05975,-2.50039],[114.06041,-2.5014]],[[114.02868,-2.39219],[114.02959,-2.39189],[114.02966,-2.3907],[114.02881,-2.39016],[114.02868,-2.39219]],[[114.02029,-2.70104],[114.01809,-2.70288],[114.01939,-2.70288],[114.02124,-2.7011],[114.02029,-2.70104]],[[113.53249,-2.49149],[113.53356,-2.48929],[113.53229,-2.49003],[113.53142,-2.49161],[113.53249,-2.49149]],[[113.50793,-2.53789],[113.51011,-2.53679],[113.50924,-2.53636],[113.50662,-2.5371],[113.50793,-2.53789]],[[114.0512,-2.61457],[114.04415,-2.61223],[114.03626,-2.61575],[114.0374,-2.62118],[114.0369,-2.62621],[114.04257,-2.62782],[114.04363,-2.63102],[114.0431,-2.63445],[114.0447,-2.63743],[114.05262,-2.63507],[114.05255,-2.63388],[114.0467,-2.62718],[114.04575,-2.62204],[114.05466,-2.61826],[114.0512,-2.61457]]]}},{"type":"Feature","id":"tanjung-puting","properties":{"name":"Tanjung Puting National Park (reference)","operator":"KLHK / Balai TN Tanjung Puting","type":"National park \u2014 reference (adjacent to Rimba Raya)","approx_area_ha":415040,"approximate":false,"source":"WDPA"},"geometry":{"type":"Polygon","coordinates":[[[111.70494,-2.78786],[111.70414,-2.79655],[111.7089,-2.80405],[111.71854,-2.81165],[111.72677,-2.81374],[111.73284,-2.817],[111.74009,-2.82752],[111.74151,-2.84356],[111.73512,-2.85443],[111.72964,-2.85934],[111.72655,-2.8664],[111.73439,-2.88478],[111.73849,-2.89008],[111.74799,-2.91248],[111.75329,-2.93258],[111.76329,-2.95558],[111.78869,-2.98798],[111.79639,-3.00388],[111.80369,-3.02828],[111.80669,-3.06898],[111.80159,-3.10018],[111.79049,-3.13138],[111.78829,-3.14768],[111.78189,-3.16588],[111.77909,-3.18668],[111.77909,-3.20608],[111.78489,-3.22698],[111.78629,-3.23928],[111.79089,-3.24968],[111.79229,-3.26488],[111.80339,-3.32588],[111.80469,-3.37308],[111.80339,-3.40218],[111.78669,-3.44938],[111.77839,-3.47148],[111.77006,-3.48399],[111.74929,-3.49648],[111.74929,-3.50758],[111.75339,-3.51588],[111.77559,-3.53528],[111.78649,-3.54218],[111.82969,-3.55388],[111.87719,-3.56168],[111.90619,-3.55498],[111.92686,-3.5425],[111.95116,-3.5242],[111.98246,-3.495],[111.99396,-3.4831],[112.05169,-3.43838],[112.13876,-3.3845],[112.16819,-3.36228],[112.18662,-3.35389],[112.1858,-3.34034],[112.19969,-3.30108],[112.23755,-3.22123],[112.30704,-3.221],[112.29372,-3.20054],[112.28338,-3.17856],[112.28308,-3.17517],[112.27716,-3.1756],[112.26782,-3.14859],[112.26816,-3.0887],[112.26226,-3.0533],[112.23151,-2.97141],[112.22886,-2.9553],[112.23275,-2.95438],[112.22256,-2.9269],[112.21716,-2.8705],[112.21108,-2.85018],[112.20906,-2.8459],[112.20386,-2.824],[112.19677,-2.80464],[112.18916,-2.7918],[112.1665,-2.77341],[112.15696,-2.7552],[112.13893,-2.75785],[112.07213,-2.64109],[112.07015,-2.63532],[112.069,-2.63726],[112.06802,-2.6342],[112.06704,-2.6346],[112.02249,-2.55578],[112.02238,-2.55363],[111.9748,-2.55408],[111.96398,-2.55706],[111.94786,-2.55021],[111.94338,-2.55269],[111.93925,-2.55973],[111.9392,-2.56658],[111.93684,-2.568],[111.93598,-2.57369],[111.92921,-2.57448],[111.93026,-2.58384],[111.92776,-2.58408],[111.92788,-2.58612],[111.92443,-2.58732],[111.92681,-2.59246],[111.92372,-2.59378],[111.92337,-2.59582],[111.9192,-2.59366],[111.91086,-2.6],[111.91136,-2.6031],[111.90585,-2.6048],[111.90416,-2.6096],[111.89566,-2.614],[111.89686,-2.6214],[111.88596,-2.6318],[111.88686,-2.6382],[111.88766,-2.6481],[111.89486,-2.66],[111.90946,-2.6847],[111.90856,-2.6916],[111.89926,-2.7],[111.89491,-2.70914],[111.89536,-2.7187],[111.88935,-2.72845],[111.88976,-2.73297],[111.89056,-2.7451],[111.89606,-2.7584],[111.89526,-2.7638],[111.88746,-2.7736],[111.88266,-2.7838],[111.87106,-2.7922],[111.85992,-2.7928],[111.84792,-2.7883],[111.84629,-2.78859],[111.84359,-2.78568],[111.83479,-2.79093],[111.82969,-2.79427],[111.82738,-2.79898],[111.82874,-2.804],[111.82857,-2.80686],[111.83001,-2.80966],[111.82407,-2.81727],[111.82176,-2.81834],[111.81783,-2.81703],[111.80789,-2.81798],[111.80635,-2.81893],[111.80736,-2.82179],[111.80596,-2.82429],[111.81666,-2.8386],[111.81695,-2.86738],[111.78298,-2.866],[111.78079,-2.85154],[111.78419,-2.8517],[111.79156,-2.83142],[111.78219,-2.82964],[111.78238,-2.82661],[111.77687,-2.82268],[111.77884,-2.81721],[111.77687,-2.81233],[111.76531,-2.81161],[111.75989,-2.81224],[111.75983,-2.80965],[111.75626,-2.80674],[111.75585,-2.80412],[111.75254,-2.80097],[111.74804,-2.79538],[111.74324,-2.79148],[111.74133,-2.79228],[111.7399,-2.7902],[111.738,-2.79127],[111.73645,-2.79246],[111.72898,-2.79295],[111.72878,-2.79006],[111.72526,-2.79232],[111.71834,-2.78546],[111.71581,-2.78108],[111.71306,-2.77696],[111.70494,-2.78786]],[[111.88593,-2.96276],[111.88578,-2.96187],[111.88454,-2.96285],[111.88593,-2.96276]],[[111.85571,-2.99167],[111.85502,-2.99108],[111.85413,-2.99161],[111.85571,-2.99167]],[[111.98486,-3.31013],[111.98447,-3.31135],[111.98614,-3.31013],[111.98386,-3.30647],[111.98486,-3.31013]],[[111.95134,-3.49801],[112.0141,-3.44997],[111.99758,-3.42897],[111.99266,-3.42874],[111.98578,-3.42393],[111.92641,-3.4635],[111.9265,-3.52203],[111.95134,-3.49801]],[[111.7664,-2.92962],[111.78207,-2.95264],[111.80036,-2.97459],[111.81258,-2.99619],[111.81702,-3.01367],[111.82239,-3.00934],[111.82035,-2.99795],[111.82326,-2.9947],[111.83155,-2.97971],[111.83133,-2.96752],[111.81841,-2.94912],[111.79192,-2.91636],[111.77947,-2.88791],[111.75788,-2.9039],[111.7664,-2.92962]],[[111.77056,-3.5125],[111.78433,-3.52354],[111.80795,-3.53379],[111.81656,-3.5023],[111.82038,-3.49286],[111.84516,-3.4119],[111.85232,-3.37099],[111.85536,-3.3205],[111.85316,-3.2911],[111.84816,-3.2616],[111.84216,-3.2542],[111.83256,-3.2475],[111.81366,-3.2392],[111.80462,-3.23839],[111.80705,-3.24784],[111.81407,-3.2819],[111.81907,-3.32901],[111.81928,-3.38433],[111.80988,-3.43615],[111.79795,-3.46821],[111.7737,-3.50753],[111.77136,-3.50982],[111.76851,-3.50732],[111.76675,-3.50726],[111.77056,-3.5125]]]}},{"type":"Feature","id":"katingan-verra","properties":{"name":"Katingan Mentaya \u2014 Verra project area (VCS 1477)","operator":"per Verra registry","type":"Verra VCS project boundary (KML from registry)","approx_area_ha":149704,"approximate":false,"source":"Verra registry doc 110200000381922","vcs_id":"1477"},"geometry":{"type":"Polygon","coordinates":[[[113.12131,-2.43705],[113.12784,-2.42405],[113.15044,-2.42405],[113.14154,-2.40091],[113.10435,-2.29215],[113.17443,-2.25194],[113.18063,-2.24482],[113.19795,-2.2298],[113.21574,-2.21187],[113.23695,-2.18812],[113.24032,-2.18253],[113.24264,-2.17661],[113.24415,-2.17052],[113.2445,-2.15981],[113.24294,-2.15022],[113.2334,-2.13012],[113.22935,-2.11801],[113.22931,-2.1046],[113.23105,-2.09468],[113.23731,-2.08277],[113.24588,-2.07228],[113.25087,-2.06785],[113.25364,-2.06608],[113.25996,-2.06489],[113.26358,-2.06481],[113.27301,-2.06725],[113.27977,-2.07112],[113.28557,-2.07618],[113.28633,-2.08373],[113.2761,-2.09463],[113.26701,-2.10241],[113.26352,-2.10674],[113.26275,-2.11078],[113.26407,-2.11406],[113.26414,-2.14459],[113.26611,-2.15202],[113.26955,-2.15716],[113.27362,-2.16161],[113.29318,-2.17694],[113.28669,-2.19074],[113.28565,-2.19972],[113.29066,-2.21516],[113.28753,-2.2519],[113.28628,-2.3036],[113.28711,-2.30596],[113.28947,-2.30698],[113.28913,-2.30933],[113.28981,-2.3108],[113.2919,-2.31212],[113.29288,-2.31388],[113.28736,-2.31287],[113.28515,-2.31515],[113.28424,-2.31715],[113.28498,-2.31977],[113.28384,-2.32213],[113.28421,-2.32345],[113.2832,-2.32717],[113.28428,-2.32785],[113.28353,-2.32992],[113.28384,-2.33278],[113.28027,-2.33605],[113.28133,-2.33773],[113.28068,-2.33965],[113.28298,-2.34139],[113.28363,-2.34749],[113.28614,-2.3488],[113.29108,-2.34962],[113.29542,-2.35178],[113.29702,-2.35341],[113.29734,-2.35441],[113.29637,-2.35529],[113.29869,-2.35941],[113.29831,-2.3636],[113.29965,-2.36832],[113.30068,-2.36891],[113.30078,-2.36992],[113.30129,-2.36932],[113.30309,-2.37042],[113.3019,-2.37099],[113.30474,-2.37761],[113.28516,-2.401],[113.26556,-2.4208],[113.23296,-2.4618],[113.23019,-2.46675],[113.22989,-2.49888],[113.23089,-2.53528],[113.22819,-2.57258],[113.22539,-2.58908],[113.22238,-2.62263],[113.26136,-2.6771],[113.25766,-2.69939],[113.25486,-2.7234],[113.23726,-2.7613],[113.21316,-2.8202],[113.19316,-2.8834],[113.183,-3.02851],[113.17335,-3.02815],[113.16706,-3.0225],[113.16715,-3.01331],[113.16356,-2.99932],[113.15816,-2.98727],[113.14029,-2.95431],[113.13177,-2.93363],[113.12606,-2.91718],[113.10499,-2.91723],[113.02061,-2.76536],[113.05952,-2.55996],[113.08718,-2.50493],[113.10883,-2.50313],[113.11844,-2.50097],[113.13187,-2.49305],[113.13709,-2.48538],[113.13868,-2.47498],[113.1332,-2.44585],[113.12131,-2.43705]]]}},{"type":"Feature","id":"rimba-raya-verra","properties":{"name":"Rimba Raya \u2014 Verra project area (VCS 674)","operator":"per Verra registry","type":"Verra VCS project boundary (KML from registry)","approx_area_ha":64183,"approximate":false,"source":"Verra registry doc 110200000270012","vcs_id":"674"},"geometry":{"type":"Polygon","coordinates":[[[112.11619,-2.76222],[112.15454,-2.7556],[112.18625,-2.75203],[112.20599,-2.79386],[112.25986,-2.83576],[112.24164,-2.8889],[112.24601,-2.9228],[112.24923,-2.94126],[112.25179,-2.95083],[112.27426,-2.9972],[112.29297,-3.12928],[112.30536,-3.16516],[112.30691,-3.16748],[112.31019,-3.16743],[112.32878,-3.18611],[112.32879,-3.19176],[112.3537,-3.20356],[112.36596,-3.22485],[112.42796,-3.26204],[112.4593,-3.25984],[112.47382,-3.28715],[112.47929,-3.3005],[112.48076,-3.30584],[112.47952,-3.31092],[112.48148,-3.31086],[112.48428,-3.31336],[112.50656,-3.3433],[112.50994,-3.35142],[112.50085,-3.36375],[112.49709,-3.37397],[112.49211,-3.37885],[112.4917,-3.3783],[112.49038,-3.37961],[112.4663,-3.38282],[112.46671,-3.38236],[112.46342,-3.38001],[112.45389,-3.36928],[112.44229,-3.35258],[112.43459,-3.34468],[112.43189,-3.34078],[112.42919,-3.33298],[112.42719,-3.33088],[112.41629,-3.32438],[112.40516,-3.31978],[112.37035,-3.32258],[112.33915,-3.30666],[112.31926,-3.29861],[112.27649,-3.29755],[112.24423,-3.30457],[112.24388,-3.29732],[112.23398,-3.29918],[112.23394,-3.29056],[112.22629,-3.29118],[112.2,-3.30096],[112.24007,-3.21542],[112.24719,-3.19676],[112.24733,-3.17889],[112.19047,-2.85789],[112.1301,-2.78605],[112.11619,-2.76222]]]}}]}